[{"OBJECT_NAME":"GLOBALSTAR M069","OBJECT_ID":"2007-020C","EPOCH":"2026-04-27T00:55:03.403776","MEAN_MOTION":12.23469809,"ECCENTRICITY":0.0002369,"INCLINATION":52.0055,"RA_OF_ASC_NODE":36.895,"ARG_OF_PERICENTER":46.0383,"MEAN_ANOMALY":327.5937,"EPHEMERIS_TYPE":0,"CLASSIFICATION_TYPE":"U","NORAD_CAT_ID":31573,"ELEMENT_SET_NO":999,"REV_AT_EPOCH":87254,"BSTAR":-0.00020379,"MEAN_MOTION_DOT":-1.15e-6,"MEAN_MOTION_DDOT":0},{"OBJECT_NAME":"GLOBALSTAR M072","OBJECT_ID":"2007-020D","EPOCH":"2026-04-27T01:52:57.660960","MEAN_MOTION":11.91657332,"ECCENTRICITY":0.0001487,"INCLINATION":51.9926,"RA_OF_ASC_NODE":236.3114,"ARG_OF_PERICENTER":186.2668,"MEAN_ANOMALY":344.5489,"EPHEMERIS_TYPE":0,"CLASSIFICATION_TYPE":"U","NORAD_CAT_ID":31574,"ELEMENT_SET_NO":999,"REV_AT_EPOCH":86888,"BSTAR":-0.00013307,"MEAN_MOTION_DOT":-9.4e-7,"MEAN_MOTION_DDOT":0},{"OBJECT_NAME":"GLOBALSTAR M066","OBJECT_ID":"2007-048C","EPOCH":"2026-04-27T05:06:18.093024","MEAN_MOTION":12.30387834,"ECCENTRICITY":0.0004298,"INCLINATION":51.958,"RA_OF_ASC_NODE":204.2466,"ARG_OF_PERICENTER":292.0491,"MEAN_ANOMALY":89.0003,"EPHEMERIS_TYPE":0,"CLASSIFICATION_TYPE":"U","NORAD_CAT_ID":32265,"ELEMENT_SET_NO":999,"REV_AT_EPOCH":85395,"BSTAR":-0.00011592,"MEAN_MOTION_DOT":-1.08e-6,"MEAN_MOTION_DDOT":0},{"OBJECT_NAME":"GLOBALSTAR M079","OBJECT_ID":"2010-054A","EPOCH":"2026-04-27T03:58:39.650016","MEAN_MOTION":12.62265149,"ECCENTRICITY":5.62e-5,"INCLINATION":52.0041,"RA_OF_ASC_NODE":263.9869,"ARG_OF_PERICENTER":134.8085,"MEAN_ANOMALY":35.7687,"EPHEMERIS_TYPE":0,"CLASSIFICATION_TYPE":"U","NORAD_CAT_ID":37188,"ELEMENT_SET_NO":999,"REV_AT_EPOCH":71610,"BSTAR":2.7766e-5,"MEAN_MOTION_DOT":-9.9e-7,"MEAN_MOTION_DDOT":0},{"OBJECT_NAME":"GLOBALSTAR M074","OBJECT_ID":"2010-054B","EPOCH":"2026-04-26T20:57:14.207040","MEAN_MOTION":12.6226758,"ECCENTRICITY":6.474e-5,"INCLINATION":52.0015,"RA_OF_ASC_NODE":264.1512,"ARG_OF_PERICENTER":104.6529,"MEAN_ANOMALY":55.1678,"EPHEMERIS_TYPE":0,"CLASSIFICATION_TYPE":"U","NORAD_CAT_ID":37189,"ELEMENT_SET_NO":999,"REV_AT_EPOCH":71667,"BSTAR":-6.245462e-6,"MEAN_MOTION_DOT":-1.05e-6,"MEAN_MOTION_DDOT":0},{"OBJECT_NAME":"GLOBALSTAR M076","OBJECT_ID":"2010-054C","EPOCH":"2026-04-27T03:20:40.405920","MEAN_MOTION":12.62272384,"ECCENTRICITY":4.19e-5,"INCLINATION":52.0031,"RA_OF_ASC_NODE":263.538,"ARG_OF_PERICENTER":102.6726,"MEAN_ANOMALY":68.5922,"EPHEMERIS_TYPE":0,"CLASSIFICATION_TYPE":"U","NORAD_CAT_ID":37190,"ELEMENT_SET_NO":999,"REV_AT_EPOCH":71642,"BSTAR":6.924e-5,"MEAN_MOTION_DOT":-9.1e-7,"MEAN_MOTION_DDOT":0},{"OBJECT_NAME":"GLOBALSTAR M077","OBJECT_ID":"2010-054D","EPOCH":"2026-04-27T00:54:46.475424","MEAN_MOTION":11.67547496,"ECCENTRICITY":0.0003312,"INCLINATION":51.9972,"RA_OF_ASC_NODE":309.121,"ARG_OF_PERICENTER":83.2889,"MEAN_ANOMALY":87.2591,"EPHEMERIS_TYPE":0,"CLASSIFICATION_TYPE":"U","NORAD_CAT_ID":37191,"ELEMENT_SET_NO":999,"REV_AT_EPOCH":71516,"BSTAR":-2.4236e-5,"MEAN_MOTION_DOT":-7.9e-7,"MEAN_MOTION_DDOT":0},{"OBJECT_NAME":"GLOBALSTAR M075","OBJECT_ID":"2010-054E","EPOCH":"2026-04-27T05:33:46.387296","MEAN_MOTION":12.62266183,"ECCENTRICITY":8.23e-5,"INCLINATION":51.9954,"RA_OF_ASC_NODE":305.3413,"ARG_OF_PERICENTER":101.2299,"MEAN_ANOMALY":69.54,"EPHEMERIS_TYPE":0,"CLASSIFICATION_TYPE":"U","NORAD_CAT_ID":37192,"ELEMENT_SET_NO":999,"REV_AT_EPOCH":71550,"BSTAR":0.00013184,"MEAN_MOTION_DOT":-8.0e-7,"MEAN_MOTION_DDOT":0},{"OBJECT_NAME":"GLOBALSTAR M073","OBJECT_ID":"2010-054F","EPOCH":"2026-04-26T18:08:06.586656","MEAN_MOTION":12.62266481,"ECCENTRICITY":3.661e-5,"INCLINATION":52.0058,"RA_OF_ASC_NODE":220.8506,"ARG_OF_PERICENTER":150.9676,"MEAN_ANOMALY":14.026,"EPHEMERIS_TYPE":0,"CLASSIFICATION_TYPE":"U","NORAD_CAT_ID":37193,"ELEMENT_SET_NO":999,"REV_AT_EPOCH":71743,"BSTAR":-3.6945466e-5,"MEAN_MOTION_DOT":-1.1e-6,"MEAN_MOTION_DDOT":0},{"OBJECT_NAME":"GLOBALSTAR M083","OBJECT_ID":"2011-033A","EPOCH":"2026-04-27T03:13:04.029024","MEAN_MOTION":12.6226284,"ECCENTRICITY":2.21e-5,"INCLINATION":51.9836,"RA_OF_ASC_NODE":167.997,"ARG_OF_PERICENTER":191.8918,"MEAN_ANOMALY":195.2643,"EPHEMERIS_TYPE":0,"CLASSIFICATION_TYPE":"U","NORAD_CAT_ID":37739,"ELEMENT_SET_NO":999,"REV_AT_EPOCH":68650,"BSTAR":7.6224e-5,"MEAN_MOTION_DOT":-9.0e-7,"MEAN_MOTION_DDOT":0},{"OBJECT_NAME":"GLOBALSTAR M088","OBJECT_ID":"2011-033B","EPOCH":"2026-04-27T04:54:17.546400","MEAN_MOTION":12.62263122,"ECCENTRICITY":4.71e-5,"INCLINATION":52.0213,"RA_OF_ASC_NODE":74.0851,"ARG_OF_PERICENTER":56.4293,"MEAN_ANOMALY":48.2598,"EPHEMERIS_TYPE":0,"CLASSIFICATION_TYPE":"U","NORAD_CAT_ID":37740,"ELEMENT_SET_NO":999,"REV_AT_EPOCH":68205,"BSTAR":6.0451e-6,"MEAN_MOTION_DOT":-1.03e-6,"MEAN_MOTION_DDOT":0},{"OBJECT_NAME":"GLOBALSTAR M091","OBJECT_ID":"2011-033C","EPOCH":"2026-04-27T03:29:46.358880","MEAN_MOTION":12.62262794,"ECCENTRICITY":5.48e-5,"INCLINATION":52.0018,"RA_OF_ASC_NODE":37.3041,"ARG_OF_PERICENTER":82.8712,"MEAN_ANOMALY":56.4126,"EPHEMERIS_TYPE":0,"CLASSIFICATION_TYPE":"U","NORAD_CAT_ID":37741,"ELEMENT_SET_NO":999,"REV_AT_EPOCH":68283,"BSTAR":6.9854e-6,"MEAN_MOTION_DOT":-1.03e-6,"MEAN_MOTION_DDOT":0},{"OBJECT_NAME":"GLOBALSTAR M085","OBJECT_ID":"2011-033D","EPOCH":"2026-04-27T01:19:11.853984","MEAN_MOTION":12.62262886,"ECCENTRICITY":7.05e-5,"INCLINATION":52.0146,"RA_OF_ASC_NODE":348.8298,"ARG_OF_PERICENTER":100.7388,"MEAN_ANOMALY":46.4834,"EPHEMERIS_TYPE":0,"CLASSIFICATION_TYPE":"U","NORAD_CAT_ID":37742,"ELEMENT_SET_NO":999,"REV_AT_EPOCH":68333,"BSTAR":0.00012423,"MEAN_MOTION_DOT":-8.2e-7,"MEAN_MOTION_DDOT":0},{"OBJECT_NAME":"GLOBALSTAR M081","OBJECT_ID":"2011-033E","EPOCH":"2026-04-27T01:58:52.331232","MEAN_MOTION":12.62263686,"ECCENTRICITY":6.51e-5,"INCLINATION":51.9983,"RA_OF_ASC_NODE":351.2411,"ARG_OF_PERICENTER":81.1581,"MEAN_ANOMALY":70.6082,"EPHEMERIS_TYPE":0,"CLASSIFICATION_TYPE":"U","NORAD_CAT_ID":37743,"ELEMENT_SET_NO":999,"REV_AT_EPOCH":68348,"BSTAR":0.00012722,"MEAN_MOTION_DOT":-8.1e-7,"MEAN_MOTION_DDOT":0},{"OBJECT_NAME":"GLOBALSTAR M089","OBJECT_ID":"2011-033F","EPOCH":"2026-04-26T18:35:42.885888","MEAN_MOTION":12.62265994,"ECCENTRICITY":8.267e-5,"INCLINATION":51.9937,"RA_OF_ASC_NODE":306.3476,"ARG_OF_PERICENTER":77.5027,"MEAN_ANOMALY":295.5604,"EPHEMERIS_TYPE":0,"CLASSIFICATION_TYPE":"U","NORAD_CAT_ID":37744,"ELEMENT_SET_NO":999,"REV_AT_EPOCH":68429,"BSTAR":0.00014961043,"MEAN_MOTION_DOT":-7.7e-7,"MEAN_MOTION_DDOT":0},{"OBJECT_NAME":"GLOBALSTAR M084","OBJECT_ID":"2011-080A","EPOCH":"2026-04-27T02:31:57.143136","MEAN_MOTION":12.62266659,"ECCENTRICITY":1.98e-5,"INCLINATION":51.9992,"RA_OF_ASC_NODE":172.794,"ARG_OF_PERICENTER":60.2087,"MEAN_ANOMALY":316.3487,"EPHEMERIS_TYPE":0,"CLASSIFICATION_TYPE":"U","NORAD_CAT_ID":38040,"ELEMENT_SET_NO":999,"REV_AT_EPOCH":66231,"BSTAR":6.2362e-5,"MEAN_MOTION_DOT":-9.3e-7,"MEAN_MOTION_DDOT":0},{"OBJECT_NAME":"GLOBALSTAR M080","OBJECT_ID":"2011-080B","EPOCH":"2026-04-27T01:48:17.395776","MEAN_MOTION":12.6226854,"ECCENTRICITY":7.26e-5,"INCLINATION":52.0042,"RA_OF_ASC_NODE":174.587,"ARG_OF_PERICENTER":143.2414,"MEAN_ANOMALY":225.2202,"EPHEMERIS_TYPE":0,"CLASSIFICATION_TYPE":"U","NORAD_CAT_ID":38041,"ELEMENT_SET_NO":999,"REV_AT_EPOCH":66243,"BSTAR":7.7973e-5,"MEAN_MOTION_DOT":-9.0e-7,"MEAN_MOTION_DDOT":0}]
